#cP2017 12 26  0  0  0.00000000      96 ORBIT IGS14 HLM  IGS
## 1981 172800.00000000   900.00000000 58113 0.0000000000000
+   32   G01G02G03G04G05G06G07G08G09G10G11G12G13G14G15G16G17
+        G18G19G20G21G22G23G24G25G26G27G28G29G30G31G32  0  0
+          0  0  0  0  0  0  0  0  0  0  0  0  0  0  0  0  0
+          0  0  0  0  0  0  0  0  0  0  0  0  0  0  0  0  0
+          0  0  0  0  0  0  0  0  0  0  0  0  0  0  0  0  0
++         2  2  2  0  2  2  3  2  2  2  2  2  2  2  2  2  2
++         2  2  2  2  2  2  2  2  2  2  2  2  2  2  2  0  0
++         0  0  0  0  0  0  0  0  0  0  0  0  0  0  0  0  0
++         0  0  0  0  0  0  0  0  0  0  0  0  0  0  0  0  0
++         0  0  0  0  0  0  0  0  0  0  0  0  0  0  0  0  0
%c G  cc GPS ccc cccc cccc cccc cccc ccccc ccccc ccccc ccccc
%c cc cc ccc ccc cccc cccc cccc cccc ccccc ccccc ccccc ccccc
%f  1.2500000  1.025000000  0.00000000000  0.000000000000000
%f  0.0000000  0.000000000  0.00000000000  0.000000000000000
%i    0    0    0    0      0      0      0      0         0
%i    0    0    0    0      0      0      0      0         0
/* RAPID ORBIT COMBINATION FROM WEIGHTED AVERAGE OF:        
/* cod emr esa gfz jpl ngs sio usn whu                      
/* REFERENCED TO IGS TIME (IGST) AND TO WEIGHTED MEAN POLE: 
/* PCV:IGS14_1977 OL/AL:FES2004  NONE     Y  ORB:CMB CLK:CMB
*  2017 12 26 21  0  0.00000000
PG01 -22009.235236 -12618.457482   8199.023524    -19.540846  6  4  6 121       
PG02  10864.961509  20946.644684  13010.818071    244.932306  7  3  6 108       
PG03 -14260.022703  -5702.742387  21650.590529    -20.547175  4  6  4  89       
PG04   8205.935379 -24894.059494   2972.903964 999999.999999
PG05   4079.541969  23347.499206 -11877.748692    -18.647911  8  8  3 133       
PG06   -206.419648  17944.512553  19602.436345    414.034086  7  3  6 107       
PG07 -18446.801645    886.796881 -19046.555527    260.406860  9  7 11 128       
PG08 -16939.454383  -8018.389764 -18812.268639    -85.490922  5  7  8 136       
PG09 -25312.814196   8047.629177    461.092548    487.231835  6  6  4  47       
PG10  10882.857580 -22630.013181  -8400.503405    136.195751  6  7  6 111       
PG11 -24656.755341  -9634.708596  -1521.118265   -732.005420  6  6  9 122       
PG12  12090.756993   9443.195084  21541.866726    358.527050  7  6  3  90       
PG13   8751.812632  13280.098444 -21387.922962    -94.996473  8  8  8 103       
PG14   8223.846500 -16074.881940  19701.335416    -91.289168  5  4  6 130       
PG15  19022.925637   6567.646080 -17719.934391   -357.399762  8 10  5 103       
PG16  -2008.070364 -22917.856421 -13025.793142     34.968410  7  9  6 106       
PG17 -17061.764298  14555.384732  14498.965536   -135.380066  2  5  5 111       
PG18  14753.808025 -14064.449683 -16344.322662    633.571232  4  5  7 103       
PG19 -10454.281882  15233.311602  18883.320599   -467.551464  5  5  3 140       
PG20  14661.804772   8345.275687 -20673.502408    496.655245  7  6  7 124       
PG21  17140.431045  -3840.123468 -19149.496755   -448.405221  5  5  8 120       
PG22 -12577.244369 -13511.482178  19326.669400   -235.752562  6  5  4  77       
PG23 -24349.287254   -587.603047  11347.512826   -219.033183  8  8  7 108       
PG24  22201.300131  13918.349245   5068.798481    -43.976036  5  7  6 122       
PG25  15518.714894  -5272.105323  20690.181671   -512.198651  6  3  6 131       
PG26   3761.384877 -26142.189621  -2097.331421   -310.440777  8  2  6 119       
PG27  -4224.186099 -14290.706170 -22041.225375    358.771437  9  8  5 132       
PG28 -13397.689352  20120.623740 -10401.808892    674.434513  5  3  6 105       
PG29  25915.630377  -3357.607897   4704.325713    519.792381  7  7  3  98       
PG30 -11849.630708  10084.047730 -21522.671984    117.681544  4  7  3 113       
PG31    185.142328 -18291.779982  19155.342268    152.849767  4  6  4 110       
PG32  15501.862946 -15868.768844  14576.880611   -531.354644  6  1  4 126       
*  2017 12 26 21 15  0.00000000
PG01 -22479.213616 -13286.796404   5484.932281    -19.543345  6  3  6 119       
PG02   9540.195758  20170.941978  15160.492113    244.923310  7  3  5  99       
PG03 -13774.937531  -8110.480545  21196.341435    -20.541491  4  6  4  98       
PG04   8309.401312 -24327.452440   5824.981278 999999.999999
PG05   3618.561034  24501.188930  -9409.450139    -18.647192  9  8  2 128       
PG06  -2018.798579  16526.348489  20717.382762    414.034661  7  3  6 103       
PG07 -19951.149789   -606.616452 -17535.136000    260.402163  9  8 11 131       
PG08 -14879.744581  -8884.824282 -20105.366364    -85.492251  6  7  8 132       
PG09 -25203.345126   7712.136168   3289.492103    487.235211  6  6  4  81       
PG10  10920.642172 -21489.421608 -10962.659293    136.201435  6  7  6 100       
PG11 -24271.985033  -9954.959126  -4239.777664   -732.006592  7  6  9 125       
PG12  11459.377693  11804.183270  20730.752372    358.525244  8  6  4  81       
PG13   6374.038808  13859.437184 -21859.805070    -94.996674  8  8  8 115       
PG14  10309.205895 -16506.969297  18277.497722    -91.290014  5  4  6 125       
PG15  17195.636585   7550.184058 -19120.740516   -357.399511  7  9  6  97       
PG16  -1493.342323 -24167.097622 -10542.882385     34.967793  7  8  6 104       
PG17 -18515.585243  14830.645785  12178.121774   -135.377519  1  5  5 121       
PG18  14708.062664 -11969.484544 -17935.874679    633.571401  5  5  7  92       
PG19 -12526.640945  15637.240968  17264.395056   -467.549612  4  5  3 142       
PG20  14377.598530  10626.696754 -19805.316753    496.656456  7  6  7 123       
PG21  18833.066443  -2319.240250 -17816.450673   -448.401306  4  5  8 111       
PG22 -12139.771879 -15576.381986  17987.545996   -235.763978  7  6  4  83       
PG23 -23127.233867  -1266.512252  13630.479763   -219.033094  8  8  6 110       
PG24  22366.299424  14404.897493   2305.684569    -43.976599  5  7  6 115       
PG25  15134.458411  -2856.968802  21450.125673   -512.204113  6  3  6 134       
PG26   4045.440363 -26173.192668    756.988875   -310.428074  8  2  5 125       
PG27  -1870.036353 -15110.393815 -21797.514262    358.773750  9  8  5 132       
PG28 -13185.572076  18709.921688 -12862.789951    674.437380  5  3  5 122       
PG29  25297.292210  -2985.155345   7491.188617    519.787719  8  6  4 100       
PG30 -13607.217506   8375.298478 -21226.940999    117.678816  4  7  4 123       
PG31   1941.076756 -16860.880855  20373.294533    152.847425  4  6  5 108       
PG32  17021.768883 -16195.761271  12341.540659   -531.355815  7  2  4 129       
*  2017 12 26 21 30  0.00000000
PG01 -22737.420384 -13738.602346   2677.704385    -19.545757  7  3  7 122       
PG02   7993.882152  19338.965303  17061.139026    244.914299  7  3  5 109       
PG03 -13424.678603 -10468.102105  20376.881951    -20.535788  4  7  3  98       
PG04   8397.081158 -23449.204660   8574.477819 999999.999999
PG05   3244.562913  25389.795996  -6778.008983    -18.646638  9  7  2 123       
PG06  -3989.230601  15143.765379  21476.571651    414.035276  7  4  5 120       
PG07 -21381.049083  -1899.381753 -15722.233090    260.397345 10  8 11 134       
PG08 -12751.644162  -9911.358814 -21051.861863    -85.492902  7  7  8 135       
PG09 -24820.814915   7244.605919   6061.277091    487.238616  6  5  4  47       
PG10  10983.511755 -20074.267552 -13334.448426    136.207131  6  7  6 101       
PG11 -23612.183631 -10215.449215  -6885.632563   -732.007979  7  5  8 138       
PG12  10982.704732  14083.249920  19559.084674    358.523538  8  5  5  74       
PG13   4000.128991  14574.504037 -21959.601367    -94.996842  8  7  8 108       
PG14  12203.767061 -16991.643502  16544.010542    -91.290406  6  3  5 126       
PG15  15293.050246   8683.719843 -20201.281094   -357.399636  7  9  6  81       
PG16  -1105.975205 -25155.965475  -7875.418694     34.967431  7  8  5 111       
PG17 -19698.595831  15090.500644   9650.201449   -135.375018  1  5  5 122       
PG18  14744.927366  -9708.194013 -19202.265282    633.571629  6  5  7  88       
PG19 -14377.812089  16093.452528  15344.573071   -467.547451  3  5  3 144       
PG20  14203.891268  12803.320626 -18600.938779    496.657269  8  6  7 124       
PG21  20449.793378   -983.343098 -16157.677367   -448.397687  4  5  7 112       
PG22 -11810.718657 -17494.837473  16344.139086   -235.775664  8  7  5  88       
PG23 -21719.557086  -2102.637988  15686.993324   -219.033022  8  7  6 101       
PG24  22299.783670  14702.676056   -496.491730    -43.976657  5  8  6 116       
PG25  14872.761201   -361.575064  21834.539694   -512.209602  6  4  6 136       
PG26   4292.764458 -25897.339236   3598.183608   -310.415362  8  2  5 116       
PG27    393.254191 -16039.073037 -21179.943234    358.776168 10  8  4 130       
PG28 -12998.782242  17019.835174 -15094.591202    674.440253  6  4  4 130       
PG29  24409.434077  -2475.063249  10148.992402    519.782856  8  6  3 110       
PG30 -15405.506938   6792.123973 -20566.301750    117.676025  4  7  5 129       
PG31   3858.426560 -15452.008350  21238.960579    152.845375  5  6  5 109       
PG32  18279.742736 -16495.286734   9893.313484   -531.356960  7  3  5 131       
EOF
